HODOYOSHI-3             
1 40015U 14033F   25334.02023991  .00002227  00000+0  26665-3 0  9994
2 40015  97.6195 140.4088 0031958 291.5491  68.2319 14.84736344618065
SPOT 7                  
1 40053U 14034A   25334.20640924  .00000659  00000+0  14454-3 0  9998
2 40053  98.0923  36.5699 0001494  98.6699 261.4671 14.60707998608088
SKYSAT-B                
1 40072U 14037D   25334.10593464  .00002072  00000+0  23668-3 0  9995
2 40072  98.3588 277.1473 0005107 189.7826 170.3290 14.87251291616365
WORLDVIEW-3 (WV-3)      
1 40115U 14048A   25334.17829987  .00001380  00000+0  16620-3 0  9995
2 40115  97.8630  46.6161 0003919 231.5178 128.5686 14.85460692612379
GAOFEN-2                
1 40118U 14049A   25334.17113005  .00000896  00000+0  12382-3 0  9998
2 40118  98.0402  33.3169 0008029 149.3180 210.8503 14.80573392609780
YAOGAN-21               
1 40143U 14053A   25334.20340628  .00008789  00000+0  37125-3 0  9999
2 40143  97.1782  18.0622 0010344  79.6436 280.5968 15.23427031624631
YAOGAN-22               
1 40275U 14063A   25334.00739938 -.00000014  00000+0  87629-4 0  9999
2 40275 100.7416 117.2476 0005843 278.9291  81.1159 13.15521964533626
ASNARO                  
1 40298U 14070A   25334.16063440  .00013452  00000+0  63125-3 0  9990
2 40298  97.3667  50.4154 0006901 137.7308 222.4460 15.19747797613789
