{
  "type": "FeatureCollection",
  "features": [
    {
      "type": "Feature",
      "properties": {
        "OBJECT_NAME": "HODOYOSHI-3",
        "OBJECT_ID": "2014-033F",
        "EPOCH": "2025-11-30T00:29:08.728224",
        "MEAN_MOTION": 14.84736344,
        "ECCENTRICITY": 0.0031958,
        "INCLINATION": 97.6195,
        "RA_OF_ASC_NODE": 140.4088,
        "ARG_OF_PERICENTER": 291.5491,
        "MEAN_ANOMALY": 68.2319,
        "EPHEMERIS_TYPE": 0,
        "CLASSIFICATION_TYPE": "U",
        "NORAD_CAT_ID": 40015,
        "ELEMENT_SET_NO": 999,
        "REV_AT_EPOCH": 61806,
        "BSTAR": 0.00026665,
        "MEAN_MOTION_DOT": 2.227e-05,
        "MEAN_MOTION_DDOT": 0,
        "norad_id": 40015,
        "name": "HODOYOSHI-3",
        "group": "resource",
        "longitude_deg": NaN,
        "latitude_deg": NaN,
        "alt_km": NaN,
        "orbit_class": "HEO",
        "timestamp": "2025-11-30T09:33:02.504664+00:00"
      },
      "geometry": {
        "type": "Point",
        "coordinates": [
          NaN,
          NaN
        ]
      }
    },
    {
      "type": "Feature",
      "properties": {
        "OBJECT_NAME": "SPOT 7",
        "OBJECT_ID": "2014-034A",
        "EPOCH": "2025-11-30T04:57:13.758336",
        "MEAN_MOTION": 14.60707998,
        "ECCENTRICITY": 0.0001494,
        "INCLINATION": 98.0923,
        "RA_OF_ASC_NODE": 36.5699,
        "ARG_OF_PERICENTER": 98.6699,
        "MEAN_ANOMALY": 261.4671,
        "EPHEMERIS_TYPE": 0,
        "CLASSIFICATION_TYPE": "U",
        "NORAD_CAT_ID": 40053,
        "ELEMENT_SET_NO": 999,
        "REV_AT_EPOCH": 60808,
        "BSTAR": 0.00014454,
        "MEAN_MOTION_DOT": 6.59e-06,
        "MEAN_MOTION_DDOT": 0,
        "norad_id": 40053,
        "name": "SPOT 7",
        "group": "resource",
        "longitude_deg": NaN,
        "latitude_deg": NaN,
        "alt_km": NaN,
        "orbit_class": "HEO",
        "timestamp": "2025-11-30T09:33:02.504774+00:00"
      },
      "geometry": {
        "type": "Point",
        "coordinates": [
          NaN,
          NaN
        ]
      }
    },
    {
      "type": "Feature",
      "properties": {
        "OBJECT_NAME": "SKYSAT-B",
        "OBJECT_ID": "2014-037D",
        "EPOCH": "2025-11-30T02:32:32.752896",
        "MEAN_MOTION": 14.87251291,
        "ECCENTRICITY": 0.0005107,
        "INCLINATION": 98.3588,
        "RA_OF_ASC_NODE": 277.1473,
        "ARG_OF_PERICENTER": 189.7826,
        "MEAN_ANOMALY": 170.329,
        "EPHEMERIS_TYPE": 0,
        "CLASSIFICATION_TYPE": "U",
        "NORAD_CAT_ID": 40072,
        "ELEMENT_SET_NO": 999,
        "REV_AT_EPOCH": 61636,
        "BSTAR": 0.00023668,
        "MEAN_MOTION_DOT": 2.072e-05,
        "MEAN_MOTION_DDOT": 0,
        "norad_id": 40072,
        "name": "SKYSAT-B",
        "group": "resource",
        "longitude_deg": NaN,
        "latitude_deg": NaN,
        "alt_km": NaN,
        "orbit_class": "HEO",
        "timestamp": "2025-11-30T09:33:02.504828+00:00"
      },
      "geometry": {
        "type": "Point",
        "coordinates": [
          NaN,
          NaN
        ]
      }
    },
    {
      "type": "Feature",
      "properties": {
        "OBJECT_NAME": "WORLDVIEW-3 (WV-3)",
        "OBJECT_ID": "2014-048A",
        "EPOCH": "2025-11-30T04:16:45.108768",
        "MEAN_MOTION": 14.85460692,
        "ECCENTRICITY": 0.0003919,
        "INCLINATION": 97.863,
        "RA_OF_ASC_NODE": 46.6161,
        "ARG_OF_PERICENTER": 231.5178,
        "MEAN_ANOMALY": 128.5686,
        "EPHEMERIS_TYPE": 0,
        "CLASSIFICATION_TYPE": "U",
        "NORAD_CAT_ID": 40115,
        "ELEMENT_SET_NO": 999,
        "REV_AT_EPOCH": 61237,
        "BSTAR": 0.0001662,
        "MEAN_MOTION_DOT": 1.38e-05,
        "MEAN_MOTION_DDOT": 0,
        "norad_id": 40115,
        "name": "WORLDVIEW-3 (WV-3)",
        "group": "resource",
        "longitude_deg": NaN,
        "latitude_deg": NaN,
        "alt_km": NaN,
        "orbit_class": "HEO",
        "timestamp": "2025-11-30T09:33:02.504921+00:00"
      },
      "geometry": {
        "type": "Point",
        "coordinates": [
          NaN,
          NaN
        ]
      }
    },
    {
      "type": "Feature",
      "properties": {
        "OBJECT_NAME": "GAOFEN-2",
        "OBJECT_ID": "2014-049A",
        "EPOCH": "2025-11-30T04:06:25.636320",
        "MEAN_MOTION": 14.80573392,
        "ECCENTRICITY": 0.0008029,
        "INCLINATION": 98.0402,
        "RA_OF_ASC_NODE": 33.3169,
        "ARG_OF_PERICENTER": 149.318,
        "MEAN_ANOMALY": 210.8503,
        "EPHEMERIS_TYPE": 0,
        "CLASSIFICATION_TYPE": "U",
        "NORAD_CAT_ID": 40118,
        "ELEMENT_SET_NO": 999,
        "REV_AT_EPOCH": 60978,
        "BSTAR": 0.00012382,
        "MEAN_MOTION_DOT": 8.96e-06,
        "MEAN_MOTION_DDOT": 0,
        "norad_id": 40118,
        "name": "GAOFEN-2",
        "group": "resource",
        "longitude_deg": NaN,
        "latitude_deg": NaN,
        "alt_km": NaN,
        "orbit_class": "HEO",
        "timestamp": "2025-11-30T09:33:02.504927+00:00"
      },
      "geometry": {
        "type": "Point",
        "coordinates": [
          NaN,
          NaN
        ]
      }
    },
    {
      "type": "Feature",
      "properties": {
        "OBJECT_NAME": "YAOGAN-21",
        "OBJECT_ID": "2014-053A",
        "EPOCH": "2025-11-30T04:52:54.302592",
        "MEAN_MOTION": 15.23427031,
        "ECCENTRICITY": 0.0010344,
        "INCLINATION": 97.1782,
        "RA_OF_ASC_NODE": 18.0622,
        "ARG_OF_PERICENTER": 79.6436,
        "MEAN_ANOMALY": 280.5968,
        "EPHEMERIS_TYPE": 0,
        "CLASSIFICATION_TYPE": "U",
        "NORAD_CAT_ID": 40143,
        "ELEMENT_SET_NO": 999,
        "REV_AT_EPOCH": 62463,
        "BSTAR": 0.00037125,
        "MEAN_MOTION_DOT": 8.789e-05,
        "MEAN_MOTION_DDOT": 0,
        "norad_id": 40143,
        "name": "YAOGAN-21",
        "group": "resource",
        "longitude_deg": NaN,
        "latitude_deg": NaN,
        "alt_km": NaN,
        "orbit_class": "HEO",
        "timestamp": "2025-11-30T09:33:02.504989+00:00"
      },
      "geometry": {
        "type": "Point",
        "coordinates": [
          NaN,
          NaN
        ]
      }
    },
    {
      "type": "Feature",
      "properties": {
        "OBJECT_NAME": "YAOGAN-22",
        "OBJECT_ID": "2014-063A",
        "EPOCH": "2025-11-30T00:10:39.306432",
        "MEAN_MOTION": 13.15521964,
        "ECCENTRICITY": 0.0005843,
        "INCLINATION": 100.7416,
        "RA_OF_ASC_NODE": 117.2476,
        "ARG_OF_PERICENTER": 278.9291,
        "MEAN_ANOMALY": 81.1159,
        "EPHEMERIS_TYPE": 0,
        "CLASSIFICATION_TYPE": "U",
        "NORAD_CAT_ID": 40275,
        "ELEMENT_SET_NO": 999,
        "REV_AT_EPOCH": 53362,
        "BSTAR": 8.7629e-05,
        "MEAN_MOTION_DOT": -1.4e-07,
        "MEAN_MOTION_DDOT": 0,
        "norad_id": 40275,
        "name": "YAOGAN-22",
        "group": "resource",
        "longitude_deg": NaN,
        "latitude_deg": NaN,
        "alt_km": NaN,
        "orbit_class": "HEO",
        "timestamp": "2025-11-30T09:33:02.505051+00:00"
      },
      "geometry": {
        "type": "Point",
        "coordinates": [
          NaN,
          NaN
        ]
      }
    },
    {
      "type": "Feature",
      "properties": {
        "OBJECT_NAME": "ASNARO",
        "OBJECT_ID": "2014-070A",
        "EPOCH": "2025-11-30T03:51:18.812160",
        "MEAN_MOTION": 15.19747797,
        "ECCENTRICITY": 0.0006901,
        "INCLINATION": 97.3667,
        "RA_OF_ASC_NODE": 50.4154,
        "ARG_OF_PERICENTER": 137.7308,
        "MEAN_ANOMALY": 222.446,
        "EPHEMERIS_TYPE": 0,
        "CLASSIFICATION_TYPE": "U",
        "NORAD_CAT_ID": 40298,
        "ELEMENT_SET_NO": 999,
        "REV_AT_EPOCH": 61378,
        "BSTAR": 0.00063125,
        "MEAN_MOTION_DOT": 0.00013452,
        "MEAN_MOTION_DDOT": 0,
        "norad_id": 40298,
        "name": "ASNARO",
        "group": "resource",
        "longitude_deg": NaN,
        "latitude_deg": NaN,
        "alt_km": NaN,
        "orbit_class": "HEO",
        "timestamp": "2025-11-30T09:33:02.505087+00:00"
      },
      "geometry": {
        "type": "Point",
        "coordinates": [
          NaN,
          NaN
        ]
      }
    }
  ]
}